02145   10.9   0.15 K1794 314.16240  279.04239  264.34058   15.01331  0.0965338  0.17086029   3.2164387  0 MPO405864  1433  26 1963-2017 0.42 M-v 38h MPCLINUX   0000   (2145) Blaauw             20170421
02146    9.9   0.15 K1794 221.69894  273.22082  131.32315   39.25944  0.1009410  0.08321095   5.1961586  0 MPO410099  1130  24 1976-2017 0.47 M-v 38h MPCLINUX   0009   (2146) Stentor            20170602
02147   12.1   0.15 K1794  89.93949  309.01600  144.46828   10.07839  0.0536689  0.17418253   3.1754088  0 MPO410099  1540  23 1966-2017 0.46 M-v 38h MPCLINUX   0000   (2147) Kharadze           20170605
02148   10.8   0.15 K1794 226.86535  231.66162  176.57248    9.14780  0.0567135  0.08275229   5.2153409  0 MPO410099  1150  25 1976-2017 0.49 M-v 38h MPCLINUX   0009   (2148) Epeios             20170606
02149   11.7   0.15 K1794 253.93447  228.95231   62.59815    7.72306  0.1080367  0.24217309   2.5490917  0 MPO410099  1745  28 1954-2017 0.42 M-v 38h MPCLINUX   0000   (2149) Schwambraniya      20170522
02150   13.3   0.15 K1794 346.58142  235.53207  201.03514   25.32470  0.0573100  0.37244275   1.9132117  0 MPO400016  1259  21 1969-2016 0.45 M-v 38h MPCLINUX   0006   (2150) Nyctimene          20161019
02151   11.0   0.15 K1794 177.53962   86.79399   27.92631   15.48725  0.0571206  0.24051677   2.5607812  0 MPO405864  1574  26 1934-2017 0.42 M-v 38h MPCLINUX   0000   (2151) Hadwiger           20170504
02152   10.8   0.15 K1794 354.77284  142.22927  250.93213   13.96287  0.2203201  0.17826232   3.1267730  0 MPO405864  1254  26 1939-2016 0.45 M-v 38h MPCLINUX   0000   (2152) Hannibal           20161115
02153   12.0   0.15 K1794  58.29059   31.73110   47.74537    1.18421  0.1519658  0.17852038   3.1237590  0 MPO410099  1616  29 1954-2017 0.49 M-v 38h MPCLINUX   0000   (2153) Akiyama            20170508
02154   13.0   0.15 K1794  14.59774  120.05439    0.86944    7.74598  0.1226602  0.23029206   2.6360283  0 MPO405864  1339  23 1958-2017 0.46 M-v 38h MPCLINUX   0000   (2154) Underhill          20170317
02155   12.4   0.15 K1794 261.31187  349.14325   38.62247    2.53562  0.0774550  0.20427301   2.8553678  0 MPO384768  1767  27 1960-2016 0.49 M-v 38h MPCLINUX   0000   (2155) Wodan              20160715
02156   12.69  0.15 K1794 264.22078    4.72789   17.17504    5.34751  0.2016332  0.29357476   2.2421100  0 MPO410099  1507  27 1917-2017 0.50 M-v 38h MPCLINUX   0000   (2156) Kate               20170605
02157   12.0   0.15 K1794 336.38747  264.89966  349.46310    8.62731  0.1126944  0.21220303   2.7837805  0 MPO410099  1627  25 1924-2017 0.45 M-v 38h MPCLINUX   0000   (2157) Ashbrook           20170606
02158   11.7   0.15 K1794 241.55071  101.93128  187.32251    1.58580  0.1825514  0.18350108   3.0669755  0 MPO410099  2036  31 1933-2017 0.48 M-v 38h MPCLINUX   0000   (2158) Tietjen            20170521
02159   12.07  0.15 K1794  75.77550  122.77816  351.15057    3.26762  0.0394859  0.25194790   2.4827265  0 MPO410099  1986  28 1929-2017 0.45 M-v 38h MPCLINUX   0000   (2159) Kukkamaki          20170605
02160   12.1   0.15 K1794 124.36404  208.57818  134.32364    2.85856  0.1010658  0.19993451   2.8965268  0 MPO405864  1896  31 1955-2017 0.46 M-v 38h MPCLINUX   0000   (2160) Spitzer            20170329
02161   12.2   0.15 K1794 312.82342  249.61674  126.41857    7.30470  0.1623726  0.21644441   2.7472939  0 MPO410099  1562  27 1931-2017 0.46 M-v 38h MPCLINUX   0000   (2161) Grissom            20170529
02162   12.7   0.15 K1794 258.40556  285.69531  128.59818    3.04833  0.1243071  0.29658955   2.2268903  0 MPO405864  1651  30 1908-2017 0.47 M-v 38h MPCLINUX   0000   (2162) Anhui              20170328
02163   11.8   0.15 K1794  86.54368  264.97242  113.30338    2.50976  0.1887556  0.17696763   3.1420047  0 MPO405864  1797  32 1949-2017 0.49 M-v 38h MPCLINUX   0000   (2163) Korczak            20170329
02164   11.9   0.15 K1794  13.36110  196.87582  115.72603    2.62542  0.1312377  0.17325427   3.1867409  0 MPO410099  1840  28 1949-2017 0.49 M-v 38h MPCLINUX   0000   (2164) Lyalya             20170602
02165   11.3   0.15 K1794 300.75770   24.25572   19.15504    0.94270  0.1758094  0.17823862   3.1270502  0 MPO410099  1590  32 1956-2017 0.49 M-v 38h MPCLINUX   0000   (2165) Young              20170602
02166   12.9   0.15 K1794 214.76900  136.69116  163.85203    5.13744  0.2183337  0.27430703   2.3459104  0 MPO405864  1535  25 1929-2017 0.51 M-v 38h MPCLINUX   0000   (2166) Handahl            20170325
02167   12.0   0.15 K1794 206.21140  274.04735  252.91650    6.02644  0.1845258  0.24302180   2.5431534  0 MPO395013  1502  23 1971-2016 0.47 M-v 38h MPCLINUX   0000   (2167) Erin               20161124
02168   12.7   0.15 K1794  77.91267   11.33847  314.12579    4.74365  0.1545592  0.25655473   2.4529161  0 MPO395013  1585  23 1955-2016 0.47 M-v 38h MPCLINUX   0000   (2168) Swope              20161212
02169   12.6   0.15 K1794 116.97850  358.45278   71.85476    1.52864  0.0480231  0.21145308   2.7903587  0 MPO410099  2182  30 1938-2017 0.47 M-v 38h MPCLINUX   0000   (2169) Taiwan             20170605
02170   13.9   0.15 K1794 105.24620  116.26230  255.87207    2.07934  0.1827024  0.26446247   2.4037724  0 MPO405864  1458  23 1949-2017 0.47 M-v 38h MPCLINUX   0000   (2170) Byelorussia        20170310
02171   12.7   0.15 K1794  38.90876  180.15210  102.05825    7.51584  0.1661871  0.29096082   2.2555184  0 MPO410099  1728  24 1949-2017 0.45 M-v 38h MPCLINUX   0000   (2171) Kiev               20170602
02172   12.2   0.15 K1794 278.89270  334.40872   84.40020    3.32561  0.1414624  0.20015438   2.8944051  0 MPO410099  1637  27 1949-2017 0.48 M-v 38h MPCLINUX   0000   (2172) Plavsk             20170602
02173   11.4   0.15 K1794 277.97502  166.11163  174.66691   14.42456  0.1145424  0.17717237   3.1395836  0 MPO410099  1459  31 1933-2017 0.49 M-v 38h MPCLINUX   0000   (2173) Maresjev           20170605
02174   13.7   0.15 K1794 142.39534    5.46397  359.97566    8.07291  0.2694961  0.24377884   2.5378856  0 MPO410099  1058  22 1953-2017 0.52 M-v 38h MPCLINUX   0000   (2174) Asmodeus           20170521
02175   13.9   0.15 K1794  44.45182  143.67991  222.09146    3.70561  0.2074180  0.29887010   2.2155475  0 MPO389600  1456  24 1950-2016 0.50 M-v 38h MPCLINUX   0000   (2175) Andrea Doria       20160818
02176   12.2   0.15 K1794 217.38488  179.59664   89.95397    3.04571  0.0548753  0.19657559   2.9294291  0 MPO405864  1527  26 1953-2017 0.48 M-v 38h MPCLINUX   0000   (2176) Donar              20170329
02177   11.9   0.15 K1794  16.38698  274.61643   51.47788    1.52490  0.1033325  0.17285756   3.1916147  0 MPO405864  1773  29 1953-2017 0.48 M-v 38h MPCLINUX   0000   (2177) Oliver             20170402
02178   13.6   0.15 K1794 256.91463  351.00988   11.42619    3.07431  0.1545098  0.30044467   2.2077999  0 MPO410099  1318  24 1972-2017 0.48 M-v 38h MPCLINUX   0000   (2178) Kazakhstania       20170606
02179   11.2   0.15 K1794 204.38316   58.03770   14.90554   10.47451  0.0989496  0.18881544   3.0091537  0 MPO410099  1305  27 1930-2017 0.46 M-v 38h MPCLINUX   0000   (2179) Platzeck           20170603
02180   11.0   0.15 K1794 289.16245   87.81313  233.28021    9.25038  0.0792236  0.18845662   3.0129722  0 MPO410099  1558  31 1940-2017 0.44 M-v 38h MPCLINUX   0000   (2180) Marjaleena         20170602
02181   12.0   0.15 K1794 307.03311  116.13427   17.28770   13.00740  0.1187976  0.23625352   2.5914959  0 MPO395013  1190  25 1942-2017 0.50 M-v 38h MPCLINUX   0000   (2181) Fogelin            20170109
02182   11.6   0.15 K1794 173.05893  201.74920   51.04912    2.25906  0.1324046  0.17786728   3.1314009  0 MPO400016  1818  30 1953-2017 0.47 M-v 38h MPCLINUX   0000   (2182) Semirot            20170215
02183   11.8   0.15 K1794  58.18796  239.95090   87.28955   18.10780  0.3759711  0.19017217   2.9948247  0 MPO395013  1155  24 1959-2017 0.51 M-v 38h MPCLINUX   0000   (2183) Neufang            20170106
02184   11.6   0.15 K1794 136.22634  120.26160  256.57273    5.19361  0.0994603  0.17408223   3.1766284  0 MPO410099  1804  28 1930-2017 0.46 M-v 38h MPCLINUX   0000   (2184) Fujian             20170527
02185   11.4   0.15 K1794 307.77418  262.27697   60.59019    9.59513  0.1596968  0.22095680   2.7097619  0 MPO410099  1716  26 1950-2017 0.46 M-v 38h MPCLINUX   0000   (2185) Guangdong          20170602
02186   12.6   0.15 K1794 334.84582  132.66898  285.37656    2.37102  0.1033997  0.22457570   2.6805724  0 MPO405864  1423  31 1966-2016 0.52 M-v 38h MPCLINUX   0000   (2186) Keldysh            20161111
02187   13.3   0.15 K1794 139.35741  214.21424  137.27349   13.26097  0.1183710  0.24415137   2.5353034  0 MPO405864  1152  20 1976-2017 0.49 M-v 38h MPCLINUX   0000   (2187) La Silla           20170327
02188   11.7   0.15 K1794 166.90233  194.60811  140.40176    2.66022  0.0899562  0.19952663   2.9004729  0 MPO410100  1756  32 1963-2017 0.51 M-v 38h MPCLINUX   0000   (2188) Orlenok            20170520
02189   13.0   0.15 K1794  79.61484  217.63916  128.82384   13.91697  0.2263638  0.26458272   2.4030441  0 MPO400016  1368  27 1955-2017 0.47 M-v 38h MPCLINUX   0007   (2189) Zaragoza           20170118
02190   13.2   0.15 K1794 233.37625  315.76433  262.55924    0.82815  0.0890320  0.25374119   2.4710151  0 MPO405864  1638  29 1933-2017 0.50 M-v 38h MPCLINUX   0000   (2190) Coubertin          20170129
02191   11.2   0.15 K1794 132.51777  180.30779  247.31427    9.03187  0.0820584  0.18748296   3.0233947  0 MPO410100  1604  24 1954-2017 0.47 M-v 38h MPCLINUX   0000   (2191) Uppsala            20170529
02192   11.6   0.15 K1794 302.88065  146.74001  201.44166    9.79418  0.0784288  0.17733169   3.1377029  0 MPO410100  1631  24 1972-2017 0.48 M-v 38h MPCLINUX   0000   (2192) Pyatigoriya        20170606
02193   10.5   0.15 K1794 222.21617  226.38225   36.61064   11.69041  0.0746437  0.18025154   3.1037262  0 MPO405864  1639  27 1936-2017 0.47 M-v 38h MPCLINUX   0000   (2193) Jackson            20170421
